{"type": "FeatureCollection", "features": [ {"type": "Feature", "properties": {"norad_id": 33153, "name": "INTELSAT 25 (IS-25)", "group": "intelsat", "lat": 1.7720272655752727, "lon": -151.05766662610495, "alt_km": 35773.54115171634, "timestamp": "2025-12-08T10:52:02.617077+00:00", "meta": {"OBJECT_NAME": "INTELSAT 25 (IS-25)", "OBJECT_ID": "2008-034A", "EPOCH": "2025-12-07T22:02:46.339296", "MEAN_MOTION": 1.00270512, "ECCENTRICITY": 0.00054347, "INCLINATION": 2.215, "RA_OF_ASC_NODE": 82.6985, "ARG_OF_PERICENTER": 182.776, "MEAN_ANOMALY": 110.659, "EPHEMERIS_TYPE": 0, "CLASSIFICATION_TYPE": "U", "NORAD_CAT_ID": 33153, "ELEMENT_SET_NO": 999, "REV_AT_EPOCH": 6377, "BSTAR": 0, "MEAN_MOTION_DOT": -2.22e-06, "MEAN_MOTION_DDOT": 0}, "tle": {"line1": "1 33153U 08034A   25341.91859189 -.00000222  00000+0  00000+0 0  9990", "line2": "2 33153   2.2150  82.6985 0005434 182.7760 110.6590  1.00270512 63775"}}, "geometry": {"type": "Point", "coordinates": [-151.05766662610495, 1.7720272655752727]}}, {"type": "Feature", "properties": {"norad_id": 33376, "name": "GALAXY 19 (G-19)", "group": "intelsat", "lat": -0.002611729826172796, "lon": 143.4297834464686, "alt_km": 35795.06362987596, "timestamp": "2025-12-08T10:52:02.617089+00:00", "meta": {"OBJECT_NAME": "GALAXY 19 (G-19)", "OBJECT_ID": "2008-045A", "EPOCH": "2025-12-07T21:44:04.473312", "MEAN_MOTION": 1.0026955, "ECCENTRICITY": 0.00033833, "INCLINATION": 0.0159, "RA_OF_ASC_NODE": 303.6828, "ARG_OF_PERICENTER": 325.4261, "MEAN_ANOMALY": 36.8304, "EPHEMERIS_TYPE": 0, "CLASSIFICATION_TYPE": "U", "NORAD_CAT_ID": 33376, "ELEMENT_SET_NO": 999, "REV_AT_EPOCH": 6298, "BSTAR": 0, "MEAN_MOTION_DOT": -1.36e-06, "MEAN_MOTION_DDOT": 0}, "tle": {"line1": "1 33376U 08045A   25341.90560733 -.00000136  00000+0  00000+0 0  9996", "line2": "2 33376   0.0159 303.6828 0003383 325.4261  36.8304  1.00269550 62986"}}, "geometry": {"type": "Point", "coordinates": [143.4297834464686, -0.002611729826172796]}}, {"type": "Feature", "properties": {"norad_id": 35493, "name": "FM-5", "group": "intelsat", "lat": -0.013263363882347397, "lon": 154.31831723033747, "alt_km": 35783.49511336745, "timestamp": "2025-12-08T10:52:02.617101+00:00", "meta": {"OBJECT_NAME": "FM-5", "OBJECT_ID": "2009-034A", "EPOCH": "2025-12-07T21:47:04.186176", "MEAN_MOTION": 1.00271462, "ECCENTRICITY": 7.317e-05, "INCLINATION": 0.0197, "RA_OF_ASC_NODE": 289.0381, "ARG_OF_PERICENTER": 252.8974, "MEAN_ANOMALY": 135.6117, "EPHEMERIS_TYPE": 0, "CLASSIFICATION_TYPE": "U", "NORAD_CAT_ID": 35493, "ELEMENT_SET_NO": 999, "REV_AT_EPOCH": 4472, "BSTAR": 0, "MEAN_MOTION_DOT": -1.97e-06, "MEAN_MOTION_DDOT": 0}, "tle": {"line1": "1 35493U 09034A   25341.90768734 -.00000197  00000+0  00000+0 0  9995", "line2": "2 35493   0.0197 289.0381 0000731 252.8974 135.6117  1.00271462 44726"}}, "geometry": {"type": "Point", "coordinates": [154.31831723033747, -0.013263363882347397]}}, {"type": "Feature", "properties": {"norad_id": 36097, "name": "INTELSAT 14 (IS-14)", "group": "intelsat", "lat": -0.021525167818355846, "lon": -164.55504990914616, "alt_km": 35782.01965051451, "timestamp": "2025-12-08T10:52:02.617113+00:00", "meta": {"OBJECT_NAME": "INTELSAT 14 (IS-14)", "OBJECT_ID": "2009-064A", "EPOCH": "2025-12-07T21:58:54.209280", "MEAN_MOTION": 1.0027074, "ECCENTRICITY": 0.00027145, "INCLINATION": 0.01, "RA_OF_ASC_NODE": 325.0553, "ARG_OF_PERICENTER": 297.837, "MEAN_ANOMALY": 98.7745, "EPHEMERIS_TYPE": 0, "CLASSIFICATION_TYPE": "U", "NORAD_CAT_ID": 36097, "ELEMENT_SET_NO": 999, "REV_AT_EPOCH": 5868, "BSTAR": 0, "MEAN_MOTION_DOT": -2.7e-06, "MEAN_MOTION_DDOT": 0}, "tle": {"line1": "1 36097U 09064A   25341.91590520 -.00000270  00000+0  00000+0 0  9998", "line2": "2 36097   0.0100 325.0553 0002714 297.8370  98.7745  1.00270740 58689"}}, "geometry": {"type": "Point", "coordinates": [-164.55504990914616, -0.021525167818355846]}}, {"type": "Feature", "properties": {"norad_id": 36106, "name": "INTELSAT 15 (IS-15)", "group": "intelsat", "lat": -0.015760137518203283, "lon": -34.35697524626045, "alt_km": 35781.86522231987, "timestamp": "2025-12-08T10:52:02.617125+00:00", "meta": {"OBJECT_NAME": "INTELSAT 15 (IS-15)", "OBJECT_ID": "2009-067A", "EPOCH": "2025-12-07T22:35:58.159104", "MEAN_MOTION": 1.00270269, "ECCENTRICITY": 0.00024874, "INCLINATION": 0.0155, "RA_OF_ASC_NODE": 356.1908, "ARG_OF_PERICENTER": 265.7983, "MEAN_ANOMALY": 239.1138, "EPHEMERIS_TYPE": 0, "CLASSIFICATION_TYPE": "U", "NORAD_CAT_ID": 36106, "ELEMENT_SET_NO": 999, "REV_AT_EPOCH": 3931, "BSTAR": 0, "MEAN_MOTION_DOT": -1.82e-06, "MEAN_MOTION_DDOT": 0}, "tle": {"line1": "1 36106U 09067A   25341.94164536 -.00000182  00000+0  00000+0 0  9991", "line2": "2 36106   0.0155 356.1908 0002487 265.7983 239.1138  1.00270269 39312"}}, "geometry": {"type": "Point", "coordinates": [-34.35697524626045, -0.015760137518203283]}}, {"type": "Feature", "properties": {"norad_id": 36131, "name": "DIRECTV 12", "group": "intelsat", "lat": 0.022759762765298616, "lon": 137.74157646247582, "alt_km": 35787.89577192596, "timestamp": "2025-12-08T10:52:02.617138+00:00", "meta": {"OBJECT_NAME": "DIRECTV 12", "OBJECT_ID": "2009-075A", "EPOCH": "2025-12-07T21:42:27.128160", "MEAN_MOTION": 1.00270632, "ECCENTRICITY": 4.011e-05, "INCLINATION": 0.0442, "RA_OF_ASC_NODE": 138.043, "ARG_OF_PERICENTER": 207.7117, "MEAN_ANOMALY": 314.0536, "EPHEMERIS_TYPE": 0, "CLASSIFICATION_TYPE": "U", "NORAD_CAT_ID": 36131, "ELEMENT_SET_NO": 999, "REV_AT_EPOCH": 4463, "BSTAR": 0, "MEAN_MOTION_DOT": -1e-06, "MEAN_MOTION_DDOT": 0}, "tle": {"line1": "1 36131U 09075A   25341.90448065 -.00000100  00000+0  00000+0 0  9996", "line2": "2 36131   0.0442 138.0430 0000401 207.7117 314.0536  1.00270632 44635"}}, "geometry": {"type": "Point", "coordinates": [137.74157646247582, 0.022759762765298616]}}, {"type": "Feature", "properties": {"norad_id": 36397, "name": "INTELSAT 16 (IS-16)", "group": "intelsat", "lat": -0.01636750959025073, "lon": 164.24021244720674, "alt_km": 35787.451699984194, "timestamp": "2025-12-08T10:52:02.617150+00:00", "meta": {"OBJECT_NAME": "INTELSAT 16 (IS-16)", "OBJECT_ID": "2010-006A", "EPOCH": "2025-12-07T21:49:33.946752", "MEAN_MOTION": 1.00270597, "ECCENTRICITY": 0.00023332, "INCLINATION": 0.0194, "RA_OF_ASC_NODE": 302.5305, "ARG_OF_PERICENTER": 317.4352, "MEAN_ANOMALY": 68.1537, "EPHEMERIS_TYPE": 0, "CLASSIFICATION_TYPE": "U", "NORAD_CAT_ID": 36397, "ELEMENT_SET_NO": 999, "REV_AT_EPOCH": 5773, "BSTAR": 0, "MEAN_MOTION_DOT": -2.41e-06, "MEAN_MOTION_DDOT": 0}, "tle": {"line1": "1 36397U 10006A   25341.90942068 -.00000241  00000+0  00000+0 0  9994", "line2": "2 36397   0.0194 302.5305 0002333 317.4352  68.1537  1.00270597 57731"}}, "geometry": {"type": "Point", "coordinates": [164.24021244720674, -0.01636750959025073]}}, {"type": "Feature", "properties": {"norad_id": 37185, "name": "XM-5", "group": "intelsat", "lat": -0.02089290933783016, "lon": 125.26227778794521, "alt_km": 35780.80539199304, "timestamp": "2025-12-08T10:52:02.617162+00:00", "meta": {"OBJECT_NAME": "XM-5", "OBJECT_ID": "2010-053A", "EPOCH": "2025-12-07T21:38:49.974720", "MEAN_MOTION": 1.00269327, "ECCENTRICITY": 0.00016981, "INCLINATION": 0.0629, "RA_OF_ASC_NODE": 272.7874, "ARG_OF_PERICENTER": 245.9532, "MEAN_ANOMALY": 127.6966, "EPHEMERIS_TYPE": 0, "CLASSIFICATION_TYPE": "U", "NORAD_CAT_ID": 37185, "ELEMENT_SET_NO": 999, "REV_AT_EPOCH": 5556, "BSTAR": 0, "MEAN_MOTION_DOT": -2e-07, "MEAN_MOTION_DDOT": 0}, "tle": {"line1": "1 37185U 10053A   25341.90196730 -.00000020  00000+0  00000+0 0  9994", "line2": "2 37185   0.0629 272.7874 0001698 245.9532 127.6966  1.00269327 55562"}}, "geometry": {"type": "Point", "coordinates": [125.26227778794521, -0.02089290933783016]}}, {"type": "Feature", "properties": {"norad_id": 37238, "name": "INTELSAT 17 (IS-17)", "group": "intelsat", "lat": -0.011433142524430817, "lon": -53.50768228573362, "alt_km": 35779.131386622874, "timestamp": "2025-12-08T10:52:02.617174+00:00", "meta": {"OBJECT_NAME": "INTELSAT 17 (IS-17)", "OBJECT_ID": "2010-065B", "EPOCH": "2025-12-07T19:05:08.062944", "MEAN_MOTION": 1.00271817, "ECCENTRICITY": 0.00024242, "INCLINATION": 0.0057, "RA_OF_ASC_NODE": 324.0884, "ARG_OF_PERICENTER": 294.7028, "MEAN_ANOMALY": 170.3098, "EPHEMERIS_TYPE": 0, "CLASSIFICATION_TYPE": "U", "NORAD_CAT_ID": 37238, "ELEMENT_SET_NO": 999, "REV_AT_EPOCH": 5132, "BSTAR": 0, "MEAN_MOTION_DOT": 2e-08, "MEAN_MOTION_DDOT": 0}, "tle": {"line1": "1 37238U 10065B   25341.79523221  .00000002  00000+0  00000+0 0  9991", "line2": "2 37238   0.0057 324.0884 0002424 294.7028 170.3098  1.00271817 51326"}}, "geometry": {"type": "Point", "coordinates": [-53.50768228573362, -0.011433142524430817]}}, {"type": "Feature", "properties": {"norad_id": 37392, "name": "INTELSAT 28 (IS-28)", "group": "intelsat", "lat": 1.0773802275051472, "lon": -151.2752457033387, "alt_km": 35776.273372178955, "timestamp": "2025-12-08T10:52:02.617185+00:00", "meta": {"OBJECT_NAME": "INTELSAT 28 (IS-28)", "OBJECT_ID": "2011-016A", "EPOCH": "2025-12-07T22:02:38.851008", "MEAN_MOTION": 1.00270365, "ECCENTRICITY": 0.00041487, "INCLINATION": 1.3119, "RA_OF_ASC_NODE": 85.113, "ARG_OF_PERICENTER": 178.528, "MEAN_ANOMALY": 112.2458, "EPHEMERIS_TYPE": 0, "CLASSIFICATION_TYPE": "U", "NORAD_CAT_ID": 37392, "ELEMENT_SET_NO": 999, "REV_AT_EPOCH": 5136, "BSTAR": 0, "MEAN_MOTION_DOT": -2.22e-06, "MEAN_MOTION_DDOT": 0}, "tle": {"line1": "1 37392U 11016A   25341.91850522 -.00000222  00000+0  00000+0 0  9995", "line2": "2 37392   1.3119  85.1130 0004148 178.5280 112.2458  1.00270365 51369"}}, "geometry": {"type": "Point", "coordinates": [-151.2752457033387, 1.0773802275051472]}}]}